[{"OBJECT_NAME":"STARLINK-36842","OBJECT_ID":"2026-035F","EPOCH":"2026-03-05T20:00:00.999360","MEAN_MOTION":15.96409893,"ECCENTRICITY":0.0001226,"INCLINATION":97.2748,"RA_OF_ASC_NODE":356.8815,"ARG_OF_PERICENTER":75.3648,"MEAN_ANOMALY":1.8449,"EPHEMERIS_TYPE":0,"CLASSIFICATION_TYPE":"U","NORAD_CAT_ID":67884,"ELEMENT_SET_NO":999,"REV_AT_EPOCH":313,"BSTAR":-0.0025161,"MEAN_MOTION_DOT":-0.01041812,"MEAN_MOTION_DDOT":0.00033998},{"OBJECT_NAME":"STARLINK-36826","OBJECT_ID":"2026-035G","EPOCH":"2026-03-05T20:00:00.999360","MEAN_MOTION":15.96488432,"ECCENTRICITY":0.0001194,"INCLINATION":97.2746,"RA_OF_ASC_NODE":356.8828,"ARG_OF_PERICENTER":88.2049,"MEAN_ANOMALY":352.0429,"EPHEMERIS_TYPE":0,"CLASSIFICATION_TYPE":"U","NORAD_CAT_ID":67885,"ELEMENT_SET_NO":999,"REV_AT_EPOCH":313,"BSTAR":-0.0024893,"MEAN_MOTION_DOT":-0.01035159,"MEAN_MOTION_DDOT":0.00033625},{"OBJECT_NAME":"STARLINK-36390","OBJECT_ID":"2026-035H","EPOCH":"2026-03-05T20:00:00.999360","MEAN_MOTION":15.96565308,"ECCENTRICITY":0.0001142,"INCLINATION":97.2741,"RA_OF_ASC_NODE":356.8845,"ARG_OF_PERICENTER":80.4304,"MEAN_ANOMALY":4.3306,"EPHEMERIS_TYPE":0,"CLASSIFICATION_TYPE":"U","NORAD_CAT_ID":67886,"ELEMENT_SET_NO":999,"REV_AT_EPOCH":318,"BSTAR":-0.002475,"MEAN_MOTION_DOT":-0.01033494,"MEAN_MOTION_DDOT":0.00033552},{"OBJECT_NAME":"STARLINK-36368","OBJECT_ID":"2026-035J","EPOCH":"2026-03-05T20:00:00.999360","MEAN_MOTION":15.96651765,"ECCENTRICITY":0.000117,"INCLINATION":97.2742,"RA_OF_ASC_NODE":356.8862,"ARG_OF_PERICENTER":86.3694,"MEAN_ANOMALY":2.6953,"EPHEMERIS_TYPE":0,"CLASSIFICATION_TYPE":"U","NORAD_CAT_ID":67887,"ELEMENT_SET_NO":999,"REV_AT_EPOCH":313,"BSTAR":-0.0025032,"MEAN_MOTION_DOT":-0.01050049,"MEAN_MOTION_DDOT":0.00034587},{"OBJECT_NAME":"STARLINK-36801","OBJECT_ID":"2026-035K","EPOCH":"2026-03-05T20:00:00.999360","MEAN_MOTION":15.96743237,"ECCENTRICITY":0.0001213,"INCLINATION":97.2737,"RA_OF_ASC_NODE":356.8881,"ARG_OF_PERICENTER":87.8299,"MEAN_ANOMALY":5.3854,"EPHEMERIS_TYPE":0,"CLASSIFICATION_TYPE":"U","NORAD_CAT_ID":67888,"ELEMENT_SET_NO":999,"REV_AT_EPOCH":313,"BSTAR":-0.0025409,"MEAN_MOTION_DOT":-0.01071009,"MEAN_MOTION_DDOT":0.00035913},{"OBJECT_NAME":"STARLINK-36372","OBJECT_ID":"2026-035L","EPOCH":"2026-03-05T20:00:00.999360","MEAN_MOTION":15.96932544,"ECCENTRICITY":0.0001218,"INCLINATION":97.2731,"RA_OF_ASC_NODE":356.8911,"ARG_OF_PERICENTER":95.1494,"MEAN_ANOMALY":6.0658,"EPHEMERIS_TYPE":0,"CLASSIFICATION_TYPE":"U","NORAD_CAT_ID":67889,"ELEMENT_SET_NO":999,"REV_AT_EPOCH":313,"BSTAR":-0.002685,"MEAN_MOTION_DOT":-0.01142807,"MEAN_MOTION_DDOT":0.00040581},{"OBJECT_NAME":"STARLINK-36363","OBJECT_ID":"2026-035M","EPOCH":"2026-03-05T20:00:00.999360","MEAN_MOTION":15.96835291,"ECCENTRICITY":0.0001285,"INCLINATION":97.2736,"RA_OF_ASC_NODE":356.8902,"ARG_OF_PERICENTER":91.274,"MEAN_ANOMALY":6.6019,"EPHEMERIS_TYPE":0,"CLASSIFICATION_TYPE":"U","NORAD_CAT_ID":67890,"ELEMENT_SET_NO":999,"REV_AT_EPOCH":313,"BSTAR":-0.0026175,"MEAN_MOTION_DOT":-0.01108515,"MEAN_MOTION_DDOT":0.00038315},{"OBJECT_NAME":"STARLINK-36816","OBJECT_ID":"2026-035N","EPOCH":"2026-03-05T20:00:00.999360","MEAN_MOTION":15.97820871,"ECCENTRICITY":0.0001244,"INCLINATION":97.2719,"RA_OF_ASC_NODE":356.9145,"ARG_OF_PERICENTER":84.1819,"MEAN_ANOMALY":76.8127,"EPHEMERIS_TYPE":0,"CLASSIFICATION_TYPE":"U","NORAD_CAT_ID":67891,"ELEMENT_SET_NO":999,"REV_AT_EPOCH":302,"BSTAR":-0.002822,"MEAN_MOTION_DOT":-0.01259758,"MEAN_MOTION_DDOT":0.00049064},{"OBJECT_NAME":"STARLINK-36813","OBJECT_ID":"2026-035P","EPOCH":"2026-03-05T20:00:00.999360","MEAN_MOTION":15.9738127,"ECCENTRICITY":0.0001246,"INCLINATION":97.2713,"RA_OF_ASC_NODE":356.9032,"ARG_OF_PERICENTER":81.3158,"MEAN_ANOMALY":52.9623,"EPHEMERIS_TYPE":0,"CLASSIFICATION_TYPE":"U","NORAD_CAT_ID":67892,"ELEMENT_SET_NO":999,"REV_AT_EPOCH":313,"BSTAR":-0.0028297,"MEAN_MOTION_DOT":-0.01233369,"MEAN_MOTION_DDOT":0.00046957},{"OBJECT_NAME":"STARLINK-36803","OBJECT_ID":"2026-035Q","EPOCH":"2026-03-05T20:00:00.999360","MEAN_MOTION":15.97013559,"ECCENTRICITY":0.0001307,"INCLINATION":97.273,"RA_OF_ASC_NODE":356.893,"ARG_OF_PERICENTER":87.6587,"MEAN_ANOMALY":18.5335,"EPHEMERIS_TYPE":0,"CLASSIFICATION_TYPE":"U","NORAD_CAT_ID":67893,"ELEMENT_SET_NO":999,"REV_AT_EPOCH":313,"BSTAR":-0.0028273,"MEAN_MOTION_DOT":-0.01208094,"MEAN_MOTION_DDOT":0.00045014},{"OBJECT_NAME":"STARLINK-36846","OBJECT_ID":"2026-035R","EPOCH":"2026-03-05T20:00:00.999360","MEAN_MOTION":15.97123547,"ECCENTRICITY":0.0001415,"INCLINATION":97.2727,"RA_OF_ASC_NODE":356.8973,"ARG_OF_PERICENTER":101.6642,"MEAN_ANOMALY":14.6668,"EPHEMERIS_TYPE":0,"CLASSIFICATION_TYPE":"U","NORAD_CAT_ID":67894,"ELEMENT_SET_NO":999,"REV_AT_EPOCH":313,"BSTAR":-0.0028336,"MEAN_MOTION_DOT":-0.01217994,"MEAN_MOTION_DDOT":0.00045752},{"OBJECT_NAME":"STARLINK-36866","OBJECT_ID":"2026-035S","EPOCH":"2026-03-05T20:00:00.999360","MEAN_MOTION":15.97189368,"ECCENTRICITY":0.0001292,"INCLINATION":97.2726,"RA_OF_ASC_NODE":356.899,"ARG_OF_PERICENTER":78.3109,"MEAN_ANOMALY":42.4767,"EPHEMERIS_TYPE":0,"CLASSIFICATION_TYPE":"U","NORAD_CAT_ID":67895,"ELEMENT_SET_NO":999,"REV_AT_EPOCH":313,"BSTAR":-0.0028466,"MEAN_MOTION_DOT":-0.01227859,"MEAN_MOTION_DDOT":0.00046473},{"OBJECT_NAME":"STARLINK-36877","OBJECT_ID":"2026-035T","EPOCH":"2026-03-05T20:00:00.999360","MEAN_MOTION":15.9705931,"ECCENTRICITY":0.0001317,"INCLINATION":97.2728,"RA_OF_ASC_NODE":356.8951,"ARG_OF_PERICENTER":80.2361,"MEAN_ANOMALY":31.2261,"EPHEMERIS_TYPE":0,"CLASSIFICATION_TYPE":"U","NORAD_CAT_ID":67896,"ELEMENT_SET_NO":999,"REV_AT_EPOCH":313,"BSTAR":-0.0028037,"MEAN_MOTION_DOT":-0.01201065,"MEAN_MOTION_DDOT":0.00044553},{"OBJECT_NAME":"STARLINK-36870","OBJECT_ID":"2026-035U","EPOCH":"2026-03-05T20:00:00.999360","MEAN_MOTION":15.97246647,"ECCENTRICITY":0.0001311,"INCLINATION":97.2723,"RA_OF_ASC_NODE":356.9007,"ARG_OF_PERICENTER":83.0569,"MEAN_ANOMALY":42.7749,"EPHEMERIS_TYPE":0,"CLASSIFICATION_TYPE":"U","NORAD_CAT_ID":67897,"ELEMENT_SET_NO":999,"REV_AT_EPOCH":313,"BSTAR":-0.0028426,"MEAN_MOTION_DOT":-0.01229976,"MEAN_MOTION_DDOT":0.0004665},{"OBJECT_NAME":"STARLINK-36810","OBJECT_ID":"2026-035V","EPOCH":"2026-03-05T20:00:00.999360","MEAN_MOTION":15.97318061,"ECCENTRICITY":0.0001214,"INCLINATION":97.2721,"RA_OF_ASC_NODE":356.9023,"ARG_OF_PERICENTER":83.2835,"MEAN_ANOMALY":46.6354,"EPHEMERIS_TYPE":0,"CLASSIFICATION_TYPE":"U","NORAD_CAT_ID":67898,"ELEMENT_SET_NO":999,"REV_AT_EPOCH":313,"BSTAR":-0.002863,"MEAN_MOTION_DOT":-0.01243463,"MEAN_MOTION_DDOT":0.00047638},{"OBJECT_NAME":"STARLINK-36878","OBJECT_ID":"2026-035W","EPOCH":"2026-03-05T20:00:00.999360","MEAN_MOTION":15.9745453,"ECCENTRICITY":0.0001319,"INCLINATION":97.272,"RA_OF_ASC_NODE":356.9058,"ARG_OF_PERICENTER":99.136,"MEAN_ANOMALY":38.8958,"EPHEMERIS_TYPE":0,"CLASSIFICATION_TYPE":"U","NORAD_CAT_ID":67899,"ELEMENT_SET_NO":999,"REV_AT_EPOCH":313,"BSTAR":-0.0028252,"MEAN_MOTION_DOT":-0.01236338,"MEAN_MOTION_DDOT":0.00047203}]
